{"type": "FeatureCollection", "features": [ {"type": "Feature", "properties": {"norad_id": 36385, "name": "COSMOS 2251 DEB", "group": "cosmos-2251-debris", "lat": 21.743003580034877, "lon": -11.78409460362822, "alt_km": 749.4282064452846, "timestamp": "2025-12-02T08:59:33.112058+00:00", "meta": {"OBJECT_NAME": "COSMOS 2251 DEB", "OBJECT_ID": "1993-036AZN", "EPOCH": "2025-12-01T14:20:33.326016", "MEAN_MOTION": 14.72238423, "ECCENTRICITY": 0.01412029, "INCLINATION": 73.9693, "RA_OF_ASC_NODE": 176.3184, "ARG_OF_PERICENTER": 353.3144, "MEAN_ANOMALY": 6.6137, "EPHEMERIS_TYPE": 0, "CLASSIFICATION_TYPE": "U", "NORAD_CAT_ID": 36385, "ELEMENT_SET_NO": 999, "REV_AT_EPOCH": 84938, "BSTAR": 0.0013285179, "MEAN_MOTION_DOT": 9.794e-05, "MEAN_MOTION_DDOT": 0}, "tle": {"line1": "1 36385U 93036AZN 25335.59760794  .00009794  00000+0  13285-2 0  9990", "line2": "2 36385  73.9693 176.3184 0141202 353.3144   6.6137 14.72238423849388"}}, "geometry": {"type": "Point", "coordinates": [-11.78409460362822, 21.743003580034877]}}, {"type": "Feature", "properties": {"norad_id": 36420, "name": "COSMOS 2251 DEB", "group": "cosmos-2251-debris", "lat": -29.63856360245386, "lon": -74.8366922071442, "alt_km": 767.2894992210249, "timestamp": "2025-12-02T08:59:33.112068+00:00", "meta": {"OBJECT_NAME": "COSMOS 2251 DEB", "OBJECT_ID": "1993-036AZT", "EPOCH": "2025-12-01T06:42:59.179968", "MEAN_MOTION": 14.36882275, "ECCENTRICITY": 0.0017594, "INCLINATION": 74.0373, "RA_OF_ASC_NODE": 296.5477, "ARG_OF_PERICENTER": 27.2231, "MEAN_ANOMALY": 41.0206, "EPHEMERIS_TYPE": 0, "CLASSIFICATION_TYPE": "U", "NORAD_CAT_ID": 36420, "ELEMENT_SET_NO": 999, "REV_AT_EPOCH": 84872, "BSTAR": 0.00019555, "MEAN_MOTION_DOT": 5.53e-06, "MEAN_MOTION_DDOT": 0}, "tle": {"line1": "1 36420U 93036AZT 25335.27985162  .00000553  00000+0  19555-3 0  9994", "line2": "2 36420  74.0373 296.5477 0017594  27.2231  41.0206 14.36882275848722"}}, "geometry": {"type": "Point", "coordinates": [-74.8366922071442, -29.63856360245386]}}, {"type": "Feature", "properties": {"norad_id": 36430, "name": "COSMOS 2251 DEB", "group": "cosmos-2251-debris", "lat": -28.04889610264831, "lon": 118.55116716862854, "alt_km": 760.6914718494199, "timestamp": "2025-12-02T08:59:33.112078+00:00", "meta": {"OBJECT_NAME": "COSMOS 2251 DEB", "OBJECT_ID": "1993-036BAD", "EPOCH": "2025-12-02T02:24:06.345216", "MEAN_MOTION": 14.27749233, "ECCENTRICITY": 0.0097222, "INCLINATION": 74.0032, "RA_OF_ASC_NODE": 127.8413, "ARG_OF_PERICENTER": 280.0413, "MEAN_ANOMALY": 78.9776, "EPHEMERIS_TYPE": 0, "CLASSIFICATION_TYPE": "U", "NORAD_CAT_ID": 36430, "ELEMENT_SET_NO": 999, "REV_AT_EPOCH": 64405, "BSTAR": 0.0005013, "MEAN_MOTION_DOT": 1.275e-05, "MEAN_MOTION_DDOT": 0}, "tle": {"line1": "1 36430U 93036BAD 25336.10007344  .00001275  00000+0  50130-3 0  9991", "line2": "2 36430  74.0032 127.8413 0097222 280.0413  78.9776 14.27749233644055"}}, "geometry": {"type": "Point", "coordinates": [118.55116716862854, -28.04889610264831]}}, {"type": "Feature", "properties": {"norad_id": 36437, "name": "COSMOS 2251 DEB", "group": "cosmos-2251-debris", "lat": -0.7130653896207941, "lon": -125.56458461120535, "alt_km": 666.6802903156795, "timestamp": "2025-12-02T08:59:33.112088+00:00", "meta": {"OBJECT_NAME": "COSMOS 2251 DEB", "OBJECT_ID": "1993-036BAL", "EPOCH": "2025-11-30T21:52:48.229248", "MEAN_MOTION": 14.70347915, "ECCENTRICITY": 0.00231055, "INCLINATION": 73.9433, "RA_OF_ASC_NODE": 57.083, "ARG_OF_PERICENTER": 288.4572, "MEAN_ANOMALY": 71.4087, "EPHEMERIS_TYPE": 0, "CLASSIFICATION_TYPE": "U", "NORAD_CAT_ID": 36437, "ELEMENT_SET_NO": 999, "REV_AT_EPOCH": 65877, "BSTAR": 0.0016193375, "MEAN_MOTION_DOT": 9.811e-05, "MEAN_MOTION_DDOT": 0}, "tle": {"line1": "1 36437U 93036BAL 25334.91166932  .00009811  00000+0  16193-2 0  9998", "line2": "2 36437  73.9433  57.0830 0023105 288.4572  71.4087 14.70347915658775"}}, "geometry": {"type": "Point", "coordinates": [-125.56458461120535, -0.7130653896207941]}}, {"type": "Feature", "properties": {"norad_id": 36439, "name": "COSMOS 2251 DEB", "group": "cosmos-2251-debris", "lat": 3.481316288777469, "lon": 54.26090834343803, "alt_km": 788.3939246353821, "timestamp": "2025-12-02T08:59:33.112099+00:00", "meta": {"OBJECT_NAME": "COSMOS 2251 DEB", "OBJECT_ID": "1993-036BAN", "EPOCH": "2025-11-28T12:20:46.608576", "MEAN_MOTION": 13.47759109, "ECCENTRICITY": 0.04273078, "INCLINATION": 73.9677, "RA_OF_ASC_NODE": 59.4166, "ARG_OF_PERICENTER": 34.2696, "MEAN_ANOMALY": 328.5204, "EPHEMERIS_TYPE": 0, "CLASSIFICATION_TYPE": "U", "NORAD_CAT_ID": 36439, "ELEMENT_SET_NO": 999, "REV_AT_EPOCH": 58421, "BSTAR": 0.00064226543, "MEAN_MOTION_DOT": 6.71e-06, "MEAN_MOTION_DDOT": 0}, "tle": {"line1": "1 36439U 93036BAN 25332.51442834  .00000671  00000+0  64227-3 0  9999", "line2": "2 36439  73.9677  59.4166 0427307  34.2696 328.5204 13.47759109584210"}}, "geometry": {"type": "Point", "coordinates": [54.26090834343803, 3.481316288777469]}}, {"type": "Feature", "properties": {"norad_id": 36441, "name": "COSMOS 2251 DEB", "group": "cosmos-2251-debris", "lat": 12.681206963524769, "lon": 15.04861494847401, "alt_km": 559.4854242010642, "timestamp": "2025-12-02T08:59:33.112109+00:00", "meta": {"OBJECT_NAME": "COSMOS 2251 DEB", "OBJECT_ID": "1993-036BAQ", "EPOCH": "2025-12-01T10:37:17.028480", "MEAN_MOTION": 15.06528579, "ECCENTRICITY": 0.01088896, "INCLINATION": 73.8359, "RA_OF_ASC_NODE": 13.2432, "ARG_OF_PERICENTER": 115.0998, "MEAN_ANOMALY": 246.1538, "EPHEMERIS_TYPE": 0, "CLASSIFICATION_TYPE": "U", "NORAD_CAT_ID": 36441, "ELEMENT_SET_NO": 999, "REV_AT_EPOCH": 86795, "BSTAR": 0.00050507629, "MEAN_MOTION_DOT": 8.513e-05, "MEAN_MOTION_DDOT": 0}, "tle": {"line1": "1 36441U 93036BAQ 25335.44255820  .00008513  00000+0  50508-3 0  9994", "line2": "2 36441  73.8359  13.2432 0108889 115.0998 246.1538 15.06528579867959"}}, "geometry": {"type": "Point", "coordinates": [15.04861494847401, 12.681206963524769]}}, {"type": "Feature", "properties": {"norad_id": 36442, "name": "COSMOS 2251 DEB", "group": "cosmos-2251-debris", "lat": 65.12389077590883, "lon": -157.03404815573515, "alt_km": 488.36624247226337, "timestamp": "2025-12-02T08:59:33.112119+00:00", "meta": {"OBJECT_NAME": "COSMOS 2251 DEB", "OBJECT_ID": "1993-036BAR", "EPOCH": "2025-11-30T23:26:58.990560", "MEAN_MOTION": 15.24721511, "ECCENTRICITY": 0.00074124, "INCLINATION": 73.9503, "RA_OF_ASC_NODE": 64.3117, "ARG_OF_PERICENTER": 319.957, "MEAN_ANOMALY": 40.1082, "EPHEMERIS_TYPE": 0, "CLASSIFICATION_TYPE": "U", "NORAD_CAT_ID": 36442, "ELEMENT_SET_NO": 999, "REV_AT_EPOCH": 85736, "BSTAR": 0.0052461948, "MEAN_MOTION_DOT": 0.00132297, "MEAN_MOTION_DDOT": 0}, "tle": {"line1": "1 36442U 93036BAR 25334.97707165  .00132297  00000+0  52462-2 0  9993", "line2": "2 36442  73.9503  64.3117 0007412 319.9570  40.1082 15.24721511857361"}}, "geometry": {"type": "Point", "coordinates": [-157.03404815573515, 65.12389077590883]}}, {"type": "Feature", "properties": {"norad_id": 36451, "name": "COSMOS 2251 DEB", "group": "cosmos-2251-debris", "lat": 68.85824210373997, "lon": 41.926483959122194, "alt_km": 853.5838912428826, "timestamp": "2025-12-02T08:59:33.112129+00:00", "meta": {"OBJECT_NAME": "COSMOS 2251 DEB", "OBJECT_ID": "1993-036BBA", "EPOCH": "2025-11-23T11:22:47.268480", "MEAN_MOTION": 14.186418, "ECCENTRICITY": 0.01854084, "INCLINATION": 73.9551, "RA_OF_ASC_NODE": 9.8042, "ARG_OF_PERICENTER": 198.3245, "MEAN_ANOMALY": 161.1162, "EPHEMERIS_TYPE": 0, "CLASSIFICATION_TYPE": "U", "NORAD_CAT_ID": 36451, "ELEMENT_SET_NO": 999, "REV_AT_EPOCH": 83952, "BSTAR": 0.00086199657, "MEAN_MOTION_DOT": 2.093e-05, "MEAN_MOTION_DDOT": 0}, "tle": {"line1": "1 36451U 93036BBA 25327.47415820  .00002093  00000+0  86200-3 0  9992", "line2": "2 36451  73.9551   9.8042 0185408 198.3245 161.1162 14.18641800839520"}}, "geometry": {"type": "Point", "coordinates": [41.926483959122194, 68.85824210373997]}}, {"type": "Feature", "properties": {"norad_id": 36453, "name": "COSMOS 2251 DEB", "group": "cosmos-2251-debris", "lat": 26.631524234429875, "lon": -16.245228933424354, "alt_km": 701.733172071501, "timestamp": "2025-12-02T08:59:33.112139+00:00", "meta": {"OBJECT_NAME": "COSMOS 2251 DEB", "OBJECT_ID": "1993-036BBC", "EPOCH": "2025-11-25T14:26:35.818080", "MEAN_MOTION": 14.52434579, "ECCENTRICITY": 0.00700835, "INCLINATION": 73.9233, "RA_OF_ASC_NODE": 184.9219, "ARG_OF_PERICENTER": 92.9023, "MEAN_ANOMALY": 298.1691, "EPHEMERIS_TYPE": 0, "CLASSIFICATION_TYPE": "U", "NORAD_CAT_ID": 36453, "ELEMENT_SET_NO": 999, "REV_AT_EPOCH": 84219, "BSTAR": 0.0011079124, "MEAN_MOTION_DOT": 4.638e-05, "MEAN_MOTION_DDOT": 0}, "tle": {"line1": "1 36453U 93036BBC 25329.60180345  .00004638  00000+0  11079-2 0  9990", "line2": "2 36453  73.9233 184.9219 0070083  92.9023 298.1691 14.52434579842191"}}, "geometry": {"type": "Point", "coordinates": [-16.245228933424354, 26.631524234429875]}}, {"type": "Feature", "properties": {"norad_id": 36459, "name": "COSMOS 2251 DEB", "group": "cosmos-2251-debris", "lat": -33.03667303796977, "lon": 7.8052730561466, "alt_km": 881.8215128138418, "timestamp": "2025-12-02T08:59:33.112150+00:00", "meta": {"OBJECT_NAME": "COSMOS 2251 DEB", "OBJECT_ID": "1993-036BBJ", "EPOCH": "2025-11-27T21:25:14.011392", "MEAN_MOTION": 14.2626117, "ECCENTRICITY": 0.0114133, "INCLINATION": 74.0487, "RA_OF_ASC_NODE": 26.6161, "ARG_OF_PERICENTER": 126.4072, "MEAN_ANOMALY": 234.7668, "EPHEMERIS_TYPE": 0, "CLASSIFICATION_TYPE": "U", "NORAD_CAT_ID": 36459, "ELEMENT_SET_NO": 999, "REV_AT_EPOCH": 7670, "BSTAR": 0.0017749, "MEAN_MOTION_DOT": 4.537e-05, "MEAN_MOTION_DDOT": 0}, "tle": {"line1": "1 36459U 93036BBJ 25331.89252328  .00004537  00000+0  17749-2 0  9999", "line2": "2 36459  74.0487  26.6161 0114133 126.4072 234.7668 14.26261170 76702"}}, "geometry": {"type": "Point", "coordinates": [7.8052730561466, -33.03667303796977]}}]}